STARLINK-2022           
1 47643U 21012Z   23291.49442457 -.00004839  00000+0 -30627-3 0  9992
2 47643  53.0566  11.5420 0001539  99.2530 260.8633 15.06391425148131
